{
    "links": {
        "self": "http://www.neowsapp.com/rest/v1/neo/3484928?api_key=iIulBulltgU6a56xZRHN4H3l9WmuAYTsLGpBGhQ2"
    },
    "id": "3484928",
    "neo_reference_id": "3484928",
    "name": "(2010 AH3)",
    "designation": "2010 AH3",
    "nasa_jpl_url": "http://ssd.jpl.nasa.gov/sbdb.cgi?sstr=3484928",
    "absolute_magnitude_h": 26.3,
    "estimated_diameter": {
        "kilometers": {
            "estimated_diameter_min": 0.0146067964,
            "estimated_diameter_max": 0.0326617897
        },
        "meters": {
            "estimated_diameter_min": 14.6067964271,
            "estimated_diameter_max": 32.6617897446
        },
        "miles": {
            "estimated_diameter_min": 0.0090762397,
            "estimated_diameter_max": 0.020295089
        },
        "feet": {
            "estimated_diameter_min": 47.92256199,
            "estimated_diameter_max": 107.1581062656
        }
    },
    "is_potentially_hazardous_asteroid": false,
    "close_approach_data": [
        {
            "close_approach_date": "1922-09-27",
            "close_approach_date_full": "1922-Sep-27 20:21",
            "epoch_date_close_approach": -1491449940000,
            "relative_velocity": {
                "kilometers_per_second": "15.8316779382",
                "kilometers_per_hour": "56994.0405776176",
                "miles_per_hour": "35413.8803800202"
            },
            "miss_distance": {
                "astronomical": "0.2852795666",
                "lunar": "110.9737514074",
                "kilometers": "42677215.517883142",
                "miles": "26518392.0486336796"
            },
            "orbiting_body": "Earth"
        },
        {
            "close_approach_date": "2009-12-26",
            "close_approach_date_full": "2009-Dec-26 19:18",
            "epoch_date_close_approach": 1261855080000,
            "relative_velocity": {
                "kilometers_per_second": "6.4013753449",
                "kilometers_per_hour": "23044.9512417632",
                "miles_per_hour": "14319.2365090834"
            },
            "miss_distance": {
                "astronomical": "0.0089799513",
                "lunar": "3.4932010557",
                "kilometers": "1343381.587183731",
                "miles": "834738.6109322478"
            },
            "orbiting_body": "Moon"
        },
        {
            "close_approach_date": "2009-12-26",
            "close_approach_date_full": "2009-Dec-26 20:55",
            "epoch_date_close_approach": 1261860900000,
            "relative_velocity": {
                "kilometers_per_second": "7.3736521867",
                "kilometers_per_hour": "26545.1478720159",
                "miles_per_hour": "16494.1225763646"
            },
            "miss_distance": {
                "astronomical": "0.0111001685",
                "lunar": "4.3179655465",
                "kilometers": "1660561.564241095",
                "miles": "1031825.109653311"
            },
            "orbiting_body": "Earth"
        }
    ],
    "orbital_data": {
        "orbit_id": "8",
        "orbit_determination_date": "2017-04-06 08:58:38",
        "first_observation_date": "2010-01-08",
        "last_observation_date": "2010-01-14",
        "data_arc_in_days": 6,
        "observations_used": 27,
        "orbit_uncertainty": "8",
        "minimum_orbit_intersection": ".00526169",
        "jupiter_tisserand_invariant": "4.155",
        "epoch_osculation": "2455207.5",
        "eccentricity": ".4247389759226798",
        "semi_major_axis": "1.66120755447987",
        "inclination": "2.000857162480873",
        "ascending_node_longitude": "100.7273890552826",
        "orbital_period": "782.0495546012651",
        "perihelion_distance": ".9556279589950706",
        "perihelion_argument": "325.6591323628522",
        "aphelion_distance": "2.366787149964669",
        "perihelion_time": "2455169.376394162325",
        "mean_anomaly": "17.54939699257365",
        "mean_motion": ".4603288856593611",
        "equinox": "J2000",
        "orbit_class": {
            "orbit_class_type": "APO",
            "orbit_class_description": "Near-Earth asteroid orbits which cross the Earth’s orbit similar to that of 1862 Apollo",
            "orbit_class_range": "a (semi-major axis) > 1.0 AU; q (perihelion) < 1.017 AU"
        }
    },
    "is_sentry_object": false
}